{
  "norad_id": 59449,
  "name": "HAWK-8C",
  "history": [
    {
      "epoch": "2026-04-10T04:48:30.323808Z",
      "apogee_km": 571.5030625765648,
      "perigee_km": 569.0367950212576,
      "latitude_deg": -9.021844809599862e-06,
      "longitude_deg": -1.6120632787434472,
      "height_km": 569.5517192640214,
      "semi_major_axis_km": 6948.406928798911,
      "eccentricity": 0.00017747,
      "inclination_deg": 45.607,
      "raan_deg": 268.9519,
      "arg_perigee_deg": 50.6212,
      "mean_anomaly_deg": 309.4826,
      "mean_motion_rev_day": 14.98907715
    },
    {
      "epoch": "2026-04-11T17:35:55.728096Z",
      "apogee_km": 571.489293073113,
      "perigee_km": 569.0281713047725,
      "latitude_deg": -1.898819088791247e-05,
      "longitude_deg": 157.10004513700807,
      "height_km": 569.757486741286,
      "semi_major_axis_km": 6948.395732188943,
      "eccentricity": 0.0001771,
      "inclination_deg": 45.6082,
      "raan_deg": 261.0308,
      "arg_perigee_deg": 62.6555,
      "mean_anomaly_deg": 297.4506,
      "mean_motion_rev_day": 14.98911338
    },
    {
      "epoch": "2026-04-13T03:11:23.851680Z",
      "apogee_km": 571.4334264404779,
      "perigee_km": 569.0668057887297,
      "latitude_deg": 7.4883717011279984e-06,
      "longitude_deg": 4.6213491454531095,
      "height_km": 569.9931419604769,
      "semi_major_axis_km": 6948.3871161146035,
      "eccentricity": 0.0001703,
      "inclination_deg": 45.6082,
      "raan_deg": 253.7988,
      "arg_perigee_deg": 74.2671,
      "mean_anomaly_deg": 285.8398,
      "mean_motion_rev_day": 14.98914126
    },
    {
      "epoch": "2026-04-14T19:10:45.600096Z",
      "apogee_km": 571.4034315341069,
      "perigee_km": 569.0771148230469,
      "latitude_deg": -6.481540588519048e-05,
      "longitude_deg": 114.5288568074168,
      "height_km": 570.2771772564269,
      "semi_major_axis_km": 6948.377273178577,
      "eccentricity": 0.0001674,
      "inclination_deg": 45.6081,
      "raan_deg": 245.1893,
      "arg_perigee_deg": 88.6746,
      "mean_anomaly_deg": 271.4326,
      "mean_motion_rev_day": 14.98917311
    },
    {
      "epoch": "2026-04-15T19:10:22.483776Z",
      "apogee_km": 571.3989670203391,
      "perigee_km": 569.0698729203659,
      "latitude_deg": -4.844619632660691e-05,
      "longitude_deg": 108.47391138018905,
      "height_km": 570.445806337504,
      "semi_major_axis_km": 6948.371419970353,
      "eccentricity": 0.0001676,
      "inclination_deg": 45.608,
      "raan_deg": 240.0234,
      "arg_perigee_deg": 97.2813,
      "mean_anomaly_deg": 262.8258,
      "mean_motion_rev_day": 14.98919205
    },
    {
      "epoch": "2026-04-16T15:58:02.378784Z",
      "apogee_km": 571.3921175727819,
      "perigee_km": 569.0630257683588,
      "latitude_deg": 1.4350226397341634e-05,
      "longitude_deg": 151.22664869234364,
      "height_km": 570.5908217167109,
      "semi_major_axis_km": 6948.3645716705705,
      "eccentricity": 0.0001676,
      "inclination_deg": 45.6079,
      "raan_deg": 235.5463,
      "arg_perigee_deg": 104.8999,
      "mean_anomaly_deg": 255.2068,
      "mean_motion_rev_day": 14.98921421
    },
    {
      "epoch": "2026-04-17T14:21:40.640256Z",
      "apogee_km": 571.3993014741045,
      "perigee_km": 569.0438079240621,
      "latitude_deg": -3.024214315679503e-06,
      "longitude_deg": 169.57612298104613,
      "height_km": 570.7454457360828,
      "semi_major_axis_km": 6948.3585546990835,
      "eccentricity": 0.0001695,
      "inclination_deg": 45.6078,
      "raan_deg": 230.7249,
      "arg_perigee_deg": 112.992,
      "mean_anomaly_deg": 247.114,
      "mean_motion_rev_day": 14.98923368
    },
    {
      "epoch": "2026-04-18T14:21:17.168832Z",
      "apogee_km": 571.4153401877948,
      "perigee_km": 569.0112109924403,
      "latitude_deg": 1.0071121260324843e-05,
      "longitude_deg": 163.5226565749355,
      "height_km": 570.8998063780275,
      "semi_major_axis_km": 6948.350275590117,
      "eccentricity": 0.000173,
      "inclination_deg": 45.6078,
      "raan_deg": 225.559,
      "arg_perigee_deg": 121.1936,
      "mean_anomaly_deg": 238.9115,
      "mean_motion_rev_day": 14.98926047
    },
    {
      "epoch": "2026-04-19T14:20:53.623104Z",
      "apogee_km": 571.4437585480528,
      "perigee_km": 568.9715375222831,
      "latitude_deg": 3.4111712825267704e-05,
      "longitude_deg": 157.46961005840842,
      "height_km": 571.0512302038323,
      "semi_major_axis_km": 6948.344648035168,
      "eccentricity": 0.0001779,
      "inclination_deg": 45.6078,
      "raan_deg": 220.3932,
      "arg_perigee_deg": 129.0969,
      "mean_anomaly_deg": 231.0071,
      "mean_motion_rev_day": 14.98927868
    },
    {
      "epoch": "2026-04-20T14:20:29.947776Z",
      "apogee_km": 571.4796286497913,
      "perigee_km": 568.924585393358,
      "latitude_deg": 1.2988037556251947e-05,
      "longitude_deg": 151.41705997379847,
      "height_km": 571.1961734698206,
      "semi_major_axis_km": 6948.339107021575,
      "eccentricity": 0.00018386,
      "inclination_deg": 45.6078,
      "raan_deg": 215.2274,
      "arg_perigee_deg": 136.7088,
      "mean_anomaly_deg": 223.3938,
      "mean_motion_rev_day": 14.98929661
    },
    {
      "epoch": "2026-04-21T12:44:07.684800Z",
      "apogee_km": 571.5145172617085,
      "perigee_km": 568.8765133389488,
      "latitude_deg": 2.9170956554650193e-05,
      "longitude_deg": 169.76865451395594,
      "height_km": 571.3209267535907,
      "semi_major_axis_km": 6948.332515300328,
      "eccentricity": 0.00018983,
      "inclination_deg": 45.6078,
      "raan_deg": 210.4059,
      "arg_perigee_deg": 143.5576,
      "mean_anomaly_deg": 216.5435,
      "mean_motion_rev_day": 14.98931794
    },
    {
      "epoch": "2026-04-22T12:43:43.714848Z",
      "apogee_km": 571.5560099373306,
      "perigee_km": 568.8221215634994,
      "latitude_deg": -6.3994533009826335e-06,
      "longitude_deg": 163.71742063376087,
      "height_km": 571.4444383679802,
      "semi_major_axis_km": 6948.326065750414,
      "eccentricity": 0.00019673,
      "inclination_deg": 45.6078,
      "raan_deg": 205.2402,
      "arg_perigee_deg": 150.5957,
      "mean_anomaly_deg": 209.5035,
      "mean_motion_rev_day": 14.98933881
    },
    {
      "epoch": "2026-04-23T12:43:19.564320Z",
      "apogee_km": 571.6008671177005,
      "perigee_km": 568.7610895599537,
      "latitude_deg": 3.982432795840866e-05,
      "longitude_deg": 157.66702128772008,
      "height_km": 571.5539544692568,
      "semi_major_axis_km": 6948.317978338827,
      "eccentricity": 0.00020435,
      "inclination_deg": 45.6079,
      "raan_deg": 200.0745,
      "arg_perigee_deg": 157.1287,
      "mean_anomaly_deg": 202.9686,
      "mean_motion_rev_day": 14.98936498
    },
    {
      "epoch": "2026-04-24T06:19:01.774272Z",
      "apogee_km": 571.6312460144727,
      "perigee_km": 568.7157349326708,
      "latitude_deg": -1.2974704645702832e-05,
      "longitude_deg": -110.76980936109831,
      "height_km": 571.62390018651,
      "semi_major_axis_km": 6948.310490473572,
      "eccentricity": 0.0002098,
      "inclination_deg": 45.6078,
      "raan_deg": 196.2862,
      "arg_perigee_deg": 161.8895,
      "mean_anomaly_deg": 198.2061,
      "mean_motion_rev_day": 14.98938921
    }
  ]
}